[{"OBJECT_NAME":"STARLINK-3254","OBJECT_ID":"2021-125BA","EPOCH":"2026-03-09T22:17:51.254880","MEAN_MOTION":15.0885855,"ECCENTRICITY":0.00012835,"INCLINATION":53.2162,"RA_OF_ASC_NODE":238.0557,"ARG_OF_PERICENTER":86.9741,"MEAN_ANOMALY":273.1399,"EPHEMERIS_TYPE":0,"CLASSIFICATION_TYPE":"U","NORAD_CAT_ID":50204,"ELEMENT_SET_NO":999,"REV_AT_EPOCH":23682,"BSTAR":0.00020434356,"MEAN_MOTION_DOT":2.967e-5,"MEAN_MOTION_DDOT":0},{"OBJECT_NAME":"YUNYAO-1 43","OBJECT_ID":"2025-059A","EPOCH":"2026-03-09T23:54:24.516576","MEAN_MOTION":15.10329109,"ECCENTRICITY":0.00157026,"INCLINATION":97.608,"RA_OF_ASC_NODE":250.9377,"ARG_OF_PERICENTER":132.1084,"MEAN_ANOMALY":228.1483,"EPHEMERIS_TYPE":0,"CLASSIFICATION_TYPE":"U","NORAD_CAT_ID":63344,"ELEMENT_SET_NO":999,"REV_AT_EPOCH":5332,"BSTAR":0.00032498885,"MEAN_MOTION_DOT":5.279e-5,"MEAN_MOTION_DDOT":0}]
